ONEWEB-0683             
1 56719U 23068K   24245.79901432 -.00000475  00000+0 -12950-2 0  9995
2 56719  87.9073  29.1940 0002068  92.5577 267.5790 13.15548200 64218
ONEWEB-0684             
1 56720U 23068L   24245.65482142  .00000011  00000+0 -36693-5 0  9992
2 56720  87.9073  29.2995 0002011 144.1197 216.0068 13.15550487 63329
ONEWEB-0686             
1 56721U 23068M   24245.59381771  .00000079  00000+0  17201-3 0  9997
2 56721  87.9161 358.9693 0001940 104.6440 255.4906 13.16596834 65717
ONEWEB-0694             
1 56722U 23068N   24245.85743096  .00000080  00000+0  17441-3 0  9997
2 56722  87.9162 358.8352 0002258  93.4660 266.6729 13.16598852 66509
ONEWEB-0696             
1 56723U 23068P   24245.45992355  .00000102  00000+0  23575-3 0  9998
2 56723  87.9069  29.3123 0001504  98.7688 261.3613 13.15549781 63410
ONEWEB-0703             
1 56724U 23068Q   24245.46943591  .00000198  00000+0  49286-3 0  9990
2 56724  87.9069  29.3307 0000618 124.6857 235.4332 13.15546579 63307
ONEWEB-0721             
1 56725U 23068R   24245.57169221  .00002104  00000+0  23766-3 0  9997
2 56725  86.6763 304.1284 0010177  14.5246 345.6269 14.85995619 69853
